[{"OBJECT_NAME":"POEM-2","OBJECT_ID":"2023-057A","EPOCH":"2026-03-09T23:37:57.201312","MEAN_MOTION":14.94660083,"ECCENTRICITY":0.00213726,"INCLINATION":9.8873,"RA_OF_ASC_NODE":262.7521,"ARG_OF_PERICENTER":321.9306,"MEAN_ANOMALY":37.9396,"EPHEMERIS_TYPE":0,"CLASSIFICATION_TYPE":"U","NORAD_CAT_ID":56308,"ELEMENT_SET_NO":999,"REV_AT_EPOCH":15739,"BSTAR":0.0002074301,"MEAN_MOTION_DOT":3.02e-5,"MEAN_MOTION_DDOT":0},{"OBJECT_NAME":"STARLINK-6061","OBJECT_ID":"2023-078AE","EPOCH":"2026-03-09T11:05:19.124160","MEAN_MOTION":14.9833018,"ECCENTRICITY":0.00030659,"INCLINATION":70.0004,"RA_OF_ASC_NODE":324.8598,"ARG_OF_PERICENTER":274.8249,"MEAN_ANOMALY":85.256,"EPHEMERIS_TYPE":0,"CLASSIFICATION_TYPE":"U","NORAD_CAT_ID":56795,"ELEMENT_SET_NO":999,"REV_AT_EPOCH":15314,"BSTAR":-8.013856e-6,"MEAN_MOTION_DOT":-1.89e-6,"MEAN_MOTION_DDOT":0}]
